[{"OBJECT_NAME":"STARLINK-5012","OBJECT_ID":"2022-119AJ","EPOCH":"2026-03-09T22:30:25.463808","MEAN_MOTION":15.08833222,"ECCENTRICITY":0.00011371,"INCLINATION":53.2173,"RA_OF_ASC_NODE":312.9183,"ARG_OF_PERICENTER":74.3054,"MEAN_ANOMALY":285.8064,"EPHEMERIS_TYPE":0,"CLASSIFICATION_TYPE":"U","NORAD_CAT_ID":53918,"ELEMENT_SET_NO":999,"REV_AT_EPOCH":19186,"BSTAR":-8.4079477e-5,"MEAN_MOTION_DOT":-1.625e-5,"MEAN_MOTION_DDOT":0},{"OBJECT_NAME":"OBJECT J","OBJECT_ID":"2025-292J","EPOCH":"2026-03-09T21:49:22.925568","MEAN_MOTION":15.05538385,"ECCENTRICITY":0.00147146,"INCLINATION":97.6397,"RA_OF_ASC_NODE":145.6338,"ARG_OF_PERICENTER":337.2811,"MEAN_ANOMALY":22.7762,"EPHEMERIS_TYPE":0,"CLASSIFICATION_TYPE":"U","NORAD_CAT_ID":67001,"ELEMENT_SET_NO":999,"REV_AT_EPOCH":1350,"BSTAR":0.00042553792,"MEAN_MOTION_DOT":6.079e-5,"MEAN_MOTION_DDOT":0}]
